NORAD_CAT_ID,OBJECT_NAME,OBJECT_TYPE,EPOCH,MEAN_MOTION,ECCENTRICITY,INCLINATION,RA_OF_ASC_NODE,ARG_OF_PERICENTER,MEAN_ANOMALY,BSTAR,MEAN_MOTION_DOT,MEAN_MOTION_DDOT,TLE_LINE0,TLE_LINE1,TLE_LINE2,SEMIMAJOR_AXIS,PERIOD,APOGEE,PERIGEE,DECAYED
52639.0,STARLINK-3968,PAYLOAD,2022-12-04 01:44:10,15.08840241,0.000356,53.2173,208.5004,37.2795,322.8444,6.8715e-05,8.05e-06,0.0,0 STARLINK-3968,1 52639U 22052AT  22338.07234551  .00000805  00000-0  68715-4 0  9995,2 52639  53.2173 208.5004 0003560  37.2795 322.8444 15.08840241 31615,6917.88,95.438,542.207,537.2819999999998,0.0
52639.0,STARLINK-3968,PAYLOAD,2022-12-05 01:34:58,15.08837739,0.0003523,53.2175,204.0391,37.3785,322.7452,7.0379e-05,8.31e-06,0.0,0 STARLINK-3968,1 52639U 22052AT  22339.06595033  .00000831  00000-0  70379-4 0  9998,2 52639  53.2175 204.0391 0003523  37.3785 322.7452 15.08837739 31768,6917.887,95.438,542.189,537.315,0.0
52639.0,STARLINK-3968,PAYLOAD,2022-12-05 07:56:30,15.08844106,0.0003469,53.2175,202.8502,35.5933,324.529,7.825100000000001e-05,9.57e-06,0.0,0 STARLINK-3968,1 52639U 22052AT  22339.33090606  .00000957  00000-0  78251-4 0  9990,2 52639  53.2175 202.8502 0003469  35.5933 324.5290 15.08844106 32231,6917.868,95.437,542.133,537.3330000000002,0.0
52639.0,STARLINK-3968,PAYLOAD,2022-12-05 15:53:25,15.08848688,0.0003567,53.2176,201.3633,38.0481,322.0762,3.1136e-05,2.07e-06,0.0,0 STARLINK-3968,1 52639U 22052AT  22339.66210525  .00000207  00000-0  31136-4 0  9999,2 52639  53.2176 201.3633 0003567  38.0481 322.0762 15.08848688 31859,6917.854,95.437,542.186,537.251,0.0
52639.0,STARLINK-3968,PAYLOAD,2022-12-05 19:04:12,15.08793384,0.0003368,53.218,200.7685,46.4753,313.6519,0.00063413,9.806e-05,0.0,0 STARLINK-3968,1 52639U 22052AT  22339.79459188  .00009806  00000-0  63413-3 0  9999,2 52639  53.2180 200.7685 0003368  46.4753 313.6519 15.08793384 32307,6918.023,95.441,542.2180000000002,537.558,0.0
52639.0,STARLINK-3968,PAYLOAD,2022-12-06 01:25:45,15.08839024,0.0003546,53.2177,199.5789,38.2715,321.8529,1.7468000000000004e-06,-2.61e-06,0.0,0 STARLINK-3968,1 52639U 22052AT  22340.05955182 -.00000261  00000-0  17468-5 0  9993,2 52639  53.2177 199.5789 0003546  38.2715 321.8529 15.08839024 31918,6917.8830000000025,95.438,542.201,537.295,0.0
52639.0,STARLINK-3968,PAYLOAD,2022-12-06 07:47:17,15.08843554,0.0003573,53.2178,198.3896,38.6795,321.4452,4.3025e-06,-2.2e-06,0.0,0 STARLINK-3968,1 52639U 22052AT  22340.32450904 -.00000220  00000-0  43025-5 0  9998,2 52639  53.2178 198.3896 0003573  38.6795 321.4452 15.08843554 32383,6917.87,95.437,542.206,537.263,0.0
52639.0,STARLINK-3968,PAYLOAD,2022-12-06 23:41:10,15.08831607,0.0003597,53.218,195.4162,40.1462,319.9795,-5.2265e-05,-1.121e-05,0.0,0 STARLINK-3968,1 52639U 22052AT  22340.98692141 -.00001121  00000-0 -52265-4 0  9998,2 52639  53.2180 195.4162 0003597  40.1462 319.9795 15.08831607 32057,6917.906,95.438,542.259,537.283,0.0
52639.0,STARLINK-3968,PAYLOAD,2022-12-07 13:59:37,15.08837483,0.0003371,53.2179,192.74,40.0165,320.1075,-2.4672e-05,-6.81e-06,0.0,0 STARLINK-3968,1 52639U 22052AT  22341.58307828 -.00000681  00000-0 -24672-4 0  9991,2 52639  53.2179 192.7400 0003371  40.0165 320.1075 15.08837483 32142,6917.888000000001,95.438,542.085,537.4209999999998,0.0
52639.0,STARLINK-3968,PAYLOAD,2022-12-07 20:21:10,15.08841061,0.0003512,53.2176,191.5509,41.2709,318.8548,2.824e-06,-2.44e-06,0.0,0 STARLINK-3968,1 52639U 22052AT  22341.84803617 -.00000244  00000-0  28240-5 0  9997,2 52639  53.2176 191.5509 0003512  41.2709 318.8548 15.08841061 32618,6917.877,95.437,542.172,537.313,0.0
52639.0,STARLINK-3968,PAYLOAD,2022-12-08 07:28:51,15.08844766,0.0003605,53.2177,189.4694,41.6202,318.5064,0.00010202,1.335e-05,0.0,0 STARLINK-3968,1 52639U 22052AT  22342.31171159  .00001335  00000-0  10202-3 0  9997,2 52639  53.2177 189.4694 0003605  41.6202 318.5064 15.08844766 32687,6917.866,95.437,542.225,537.237,0.0
52639.0,STARLINK-3968,PAYLOAD,2022-12-09 13:41:14,15.08751455,0.0003108,53.2177,183.8238,347.0906,13.0006,0.00043631,6.646e-05,0.0,0 STARLINK-3968,1 52639U 22052AT  22343.57030848  .00006646  00000-0  43631-3 0  9997,2 52639  53.2177 183.8238 0003108 347.0906  13.0006 15.08751455 32877,6918.151,95.443,542.1659999999998,537.866,0.0
52639.0,STARLINK-3968,PAYLOAD,2022-12-09 20:02:45,15.08825532,0.0004064,53.2174,182.6342,31.6307,328.4928,-5.1403e-05,-1.107e-05,0.0,0 STARLINK-3968,1 52639U 22052AT  22343.83524683 -.00001107  00000-0 -51403-4 0  9997,2 52639  53.2174 182.6342 0004064  31.6307 328.4928 15.08825532 32481,6917.925,95.438,542.601,536.9780000000002,0.0
52639.0,STARLINK-3968,PAYLOAD,2022-12-10 03:59:40,15.08831563,0.0003935,53.2162,181.1474,36.4556,323.6703,-8.6305e-05,-1.662e-05,0.0,0 STARLINK-3968,1 52639U 22052AT  22344.16644533 -.00001662  00000-0 -86305-4 0  9996,2 52639  53.2162 181.1474 0003935  36.4556 323.6703 15.08831563 32538,6917.906,95.438,542.493,537.049,0.0
52639.0,STARLINK-3968,PAYLOAD,2022-12-10 13:31:59,15.08824299,0.0003364,53.2168,179.3647,28.9915,331.1264,7.9855e-05,9.82e-06,0.0,0 STARLINK-3968,1 52639U 22052AT  22344.56388380  .00000982  00000-0  79855-4 0  9999,2 52639  53.2168 179.3647 0003364  28.9915 331.1264 15.08824299 33025,6917.928000000001,95.439,542.121,537.466,0.0
52639.0,STARLINK-3968,PAYLOAD,2022-12-10 18:18:09,15.0878758,0.0002256,53.2174,178.4674,5.8967,354.2051,0.00060416,9.327e-05,0.0,0 STARLINK-3968,1 52639U 22052AT  22344.76261223  .00009327  00000-0  60416-3 0  9991,2 52639  53.2174 178.4674 0002256   5.8967 354.2051 15.08787580 32628,6918.041,95.441,541.466,538.345,0.0
52639.0,STARLINK-3968,PAYLOAD,2022-12-10 19:53:32,15.08836397,0.0003586,53.2175,178.1698,45.7073,314.4212,-5.2937e-05,-1.131e-05,0.0,0 STARLINK-3968,1 52639U 22052AT  22344.82884376 -.00001131  00000-0 -52937-4 0  9995,2 52639  53.2175 178.1698 0003586  45.7073 314.4212 15.08836397 33067,6917.891,95.438,542.237,537.276,0.0
52639.0,STARLINK-3968,PAYLOAD,2022-12-10 23:04:18,15.08837614,0.0003603,53.2175,177.5749,46.328,313.801,-5.2514e-05,-1.125e-05,0.0,0 STARLINK-3968,1 52639U 22052AT  22344.96132335 -.00001125  00000-0 -52514-4 0  9995,2 52639  53.2175 177.5749 0003603  46.3280 313.8010 15.08837614 32650,6917.888000000001,95.438,542.245,537.26,0.0
52639.0,STARLINK-3968,PAYLOAD,2022-12-11 13:22:46,15.08828844,0.0003563,53.2174,174.8986,45.1421,314.986,0.00012241,1.659e-05,0.0,0 STARLINK-3968,1 52639U 22052AT  22345.55748543  .00001659  00000-0  12241-3 0  9997,2 52639  53.2174 174.8986 0003563  45.1421 314.9860 15.08828844 33179,6917.9140000000025,95.438,542.244,537.315,0.0
52639.0,STARLINK-3968,PAYLOAD,2022-12-11 18:08:56,15.08830841,0.0003574,53.2174,174.0066,45.5927,314.5357,0.00013661,1.886e-05,0.0,0 STARLINK-3968,1 52639U 22052AT  22345.75620567  .00001886  00000-0  13661-3 0  9993,2 52639  53.2174 174.0066 0003574  45.5927 314.5357 15.08830841 33208,6917.908,95.438,542.246,537.3009999999998,0.0
52639.0,STARLINK-3968,PAYLOAD,2022-12-12 11:38:10,15.08837087,0.0003582,53.2173,170.7355,47.3531,312.7762,0.00015183,2.128e-05,0.0,0 STARLINK-3968,1 52639U 22052AT  22346.48484507  .00002128  00000-0  15183-3 0  9997,2 52639  53.2173 170.7355 0003582  47.3531 312.7762 15.08837087 33312,6917.889,95.438,542.232,537.276,0.0
52639.0,STARLINK-3968,PAYLOAD,2022-12-13 05:07:24,15.08846482,0.0003581,53.2172,167.4645,48.7433,311.3867,0.00016235,2.297e-05,0.0,0 STARLINK-3968,1 52639U 22052AT  22347.21347947  .00002297  00000-0  16235-3 0  9991,2 52639  53.2172 167.4645 0003581  48.7433 311.3867 15.08846482 32994,6917.861,95.437,542.203,537.248,0.0
52639.0,STARLINK-3968,PAYLOAD,2022-12-13 13:04:20,15.08843314,0.0003647,53.2192,165.9778,54.0533,306.0797,9.2298e-05,1.181e-05,0.0,0 STARLINK-3968,1 52639U 22052AT  22347.54468277  .00001181  00000-0  92298-4 0  9992,2 52639  53.2192 165.9778 0003647  54.0533 306.0797 15.08843314 33478,6917.87,95.437,542.258,537.212,0.0
52639.0,STARLINK-3968,PAYLOAD,2022-12-13 21:01:16,15.08836842,0.0003605,53.2173,164.4905,50.2651,309.8658,2.4847e-05,1.07e-06,0.0,0 STARLINK-3968,1 52639U 22052AT  22347.87588833  .00000107  00000-0  24847-4 0  9991,2 52639  53.2173 164.4905 0003605  50.2651 309.8658 15.08836842 33527,6917.89,95.438,542.249,537.261,0.0
52639.0,STARLINK-3968,PAYLOAD,2022-12-14 04:58:12,15.08840297,0.0003621,53.2173,163.0038,50.4578,309.6734,4.2259e-05,3.84e-06,0.0,0 STARLINK-3968,1 52639U 22052AT  22348.20708569  .00000384  00000-0  42259-4 0  9993,2 52639  53.2173 163.0038 0003621  50.4578 309.6734 15.08840297 33574,6917.879,95.438,542.249,537.24,0.0
52639.0,STARLINK-3968,PAYLOAD,2022-12-14 16:05:53,15.08845182,0.0003563999999999,53.218,160.9225,50.8426,309.2882,1.7009e-05,-1.8e-07,0.0,0 STARLINK-3968,1 52639U 22052AT  22348.67076246 -.00000018  00000-0  17009-4 0  9994,2 52639  53.2180 160.9225 0003564  50.8426 309.2882 15.08845182 33644,6917.865,95.437,542.195,537.264,0.0
52639.0,STARLINK-3968,PAYLOAD,2022-12-15 00:02:49,15.08847985,0.0003606,53.2176,159.4355,51.5399,308.5916,2.0332e-05,3.5e-07,0.0,0 STARLINK-3968,1 52639U 22052AT  22349.00195912  .00000035  00000-0  20332-4 0  9995,2 52639  53.2176 159.4355 0003606  51.5399 308.5916 15.08847985 33261,6917.856,95.437,542.216,537.226,0.0
52639.0,STARLINK-3968,PAYLOAD,2022-12-15 11:10:31,15.08845344,0.0003537,53.2176,157.35399999999996,52.0245,308.1067,8.531399999999999e-05,1.069e-05,0.0,0 STARLINK-3968,1 52639U 22052AT  22349.46563677  .00001069  00000-0  85314-4 0  9991,2 52639  53.2176 157.3540 0003537  52.0245 308.1067 15.08845344 33768,6917.864000000001,95.437,542.1759999999998,537.2819999999998,0.0
52639.0,STARLINK-3968,PAYLOAD,2022-12-15 17:32:04,15.08837412,0.0003563999999999,53.2178,156.1645,52.3512,307.7803,1.5522e-05,-4.2e-07,0.0,0 STARLINK-3968,1 52639U 22052AT  22349.73060380 -.00000042  00000-0  15522-4 0  9999,2 52639  53.2178 156.1645 0003564  52.3512 307.7803 15.08837412 33370,6917.888000000001,95.438,542.219,537.288,0.0
